{"fetched_at":"2026-03-29T02:12:04Z","count":15717,"tles":[{"name":"STARLINK-33654","line1":"1 63466U 25070G   26087.17643984  .00021281  00000+0  78018-3 0  9994","line2":"2 63466  42.9999 155.4053 0000774 246.8658 113.2112 15.27598380 55806","category":"Starlink"}]}